COSMOS 2419 (714)       
1 28915U 05050A   17229.74161108  .00000013  00000-0  00000+0 0  9997
2 28915  65.5265  63.7794 0016219 358.4081 146.3854  2.13106858 90644
COSMOS 2425 (716)       
1 29670U 06062A   17229.55383615 -.00000014  00000-0  10000-3 0  9995
2 29670  65.4300 302.7947 0019555 342.8313  69.6747  2.13105081 82847
COSMOS 2426 (717)       
1 29671U 06062B   17229.73533611 -.00000014  00000-0  10000-3 0  9999
2 29671  65.4477 302.8802 0019127 168.2773 241.3450  2.13103019 82859
COSMOS 2424 (715)       
1 29672U 06062C   17229.14511596 -.00000016  00000-0  10000-3 0  9995
2 29672  65.4320 302.8200 0018520 167.2547 324.7560  2.13102482 82832
COSMOS 2433 (720)       
1 32275U 07052A   17228.81419782  .00000012  00000-0  10000-3 0  9990
2 32275  65.5398  63.5901 0000355 246.3169 150.7575  2.13104724 76349
COSMOS 2432 (719)       
1 32276U 07052B   17228.81771501  .00000012  00000-0  10000-3 0  9991
2 32276  65.5523  63.6615 0010752 346.5935   5.9436  2.13104108 76331
COSMOS 2434 (721)       
1 32393U 07065A   17228.95974572 -.00000015  00000-0  00000+0 0  9992
2 32393  65.0459 301.9347 0004571 136.8576 261.1797  2.13103052 75058
COSMOS 2436 (723)       
1 32395U 07065C   17229.40733848 -.00000014  00000-0  10000-3 0  9998
2 32395  65.0567 301.9678 0013059 357.5599  72.8526  2.13104426 74990
COSMOS 2443 (725)       
1 33379U 08046B   17229.15254304  .00000012  00000-0  00000+0 0  9990
2 33379  65.4714  62.9555 0012545 175.3538  20.6727  2.13099458 69218
COSMOS 2456 (730)       
1 36111U 09070A   17228.92549338  .00000027  00000-0  00000+0 0  9999
2 36111  64.1822 181.4993 0006104 301.0246 242.0430  2.13102991 59714
COSMOS 2457 (733)       
1 36112U 09070B   17229.34073002  .00000020  00000-0  00000+0 0  9990
2 36112  64.1642 181.4034 0006142 188.6897  81.2174  2.13101779 59726
COSMOS 2458 (734)       
1 36113U 09070C   17229.55919146  .00000016  00000-0  10000-3 0  9992
2 36113  64.1699 181.4036 0002532 306.9857 178.5730  2.13101960 59732
COSMOS 2459 (731)       
1 36400U 10007A   17228.48155049  .00000011  00000-0  10000-3 0  9993
2 36400  65.4489  62.6990 0027153 357.0958   6.3712  2.13102330 58061
COSMOS 2461 (735)       
1 36401U 10007B   17229.31182867  .00000012  00000-0  10000-3 0  9996
2 36401  65.4425  62.6487 0008721  72.7059 118.3396  2.13102367 58079
COSMOS 2460 (732)       
1 36402U 10007C   17229.62372729  .00000012  00000-0  10000-3 0  9999
2 36402  65.4335  62.6095 0002331  81.9546  29.5086  2.13101781 58088
COSMOS 2465 (737)       
1 37138U 10041B   17229.41636756 -.00000014  00000-0  00000+0 0  9992
2 37138  64.6436 301.8762 0036576 171.2220 261.1566  2.13097554 54150
COSMOS 2464 (736)       
1 37139U 10041C   17229.12947566 -.00000015  00000-0  00000+0 0  9996
2 37139  64.6507 301.8865 0021192  11.8893  24.0950  2.13102763 54148
COSMOS 2471 (701K)      
1 37372U 11009A   17229.53261063  .00000012  00000-0  00000+0 0  9992
2 37372  65.4300  62.5598 0006709 225.8718 313.1311  2.13107733 50355
COSMOS 2474 (742)       
1 37829U 11055A   17229.43796080  .00000020  00000-0  00000+0 0  9990
2 37829  64.5064 182.0736 0010455 253.3575 182.3766  2.13101985 45729
COSMOS 2476 (744)       
1 37867U 11064A   17229.03711507  .00000027  00000-0  00000+0 0  9996
2 37867  64.4867 182.1554 0019738 246.2279 287.9528  2.13102046 45069
COSMOS 2477 (745)       
1 37868U 11064B   17228.74108247  .00000032  00000-0  00000+0 0  9991
2 37868  64.4949 182.2114 0017558 247.5975 238.5607  2.13101917 45010
COSMOS 2475 (743)       
1 37869U 11064C   17229.73424132  .00000016  00000-0  00000+0 0  9998
2 37869  64.5023 182.1688 0022452 270.8662 213.6575  2.13102193 45049
COSMOS 2485 (747)       
1 39155U 13019A   17229.13699046  .00000025  00000-0  00000+0 0  9992
2 39155  64.6559 182.1954 0020065 241.4908  54.3092  2.13102126 33536
COSMOS 2492 (754)       
1 39620U 14012A   17228.73000447  .00000011  00000-0  10000-3 0  9999
2 39620  65.3226  62.5683 0013934 339.3149  38.5411  2.13103477 26488
COSMOS 2500 (755)       
1 40001U 14032A   17229.12441132  .00000011  00000-0  00000+0 0  9995
2 40001  65.2615  62.5482 0005212 184.8248 358.5338  2.13102923 24705
COSMOS 2501 (702K)      
1 40315U 14075A   17228.59016038 -.00000020  00000-0  00000+0 0  9994
2 40315  64.3782 303.2252 0016454 207.3272  91.4485  2.13098782 21098
COSMOS 2514 (751)       
1 41330U 16008A   17229.40117663  .00000011  00000-0  00000+0 0  9996
2 41330  65.0649  62.6652 0007973 203.8444  11.9783  2.13103474 11872
COSMOS 2516 (753)       
1 41554U 16032A   17228.90384073 -.00000018  00000-0  00000+0 0  9994
2 41554  64.5971 302.9955 0013558 217.7522 228.8022  2.13101716  9470
